HTV-X1                  
1 66174U 25241A   26095.51741982  .00006691  00000+0  22107-3 0  9993
2 66174  51.6363 303.7411 0007379 276.3697  83.6444 15.32548989 25050
SZ-21 MODULE            
1 66515U 25246C   26095.22396600  .00051413  00000+0  40162-3 0  9991
2 66515  41.4750  39.7632 0003444 230.9448 129.1088 15.70779178 22242
SHENZHOU-22             
1 66645U 25272A   26095.32454764  .00033172  00000+0  37223-3 0  9997
2 66645  41.4682  45.9319 0003558 129.2727 230.8429 15.61942740282049
SOYUZ-MS 28             
1 66664U 25275A   26095.55331949  .00008543  00000+0  16420-3 0  9995
2 66664  51.6328 299.5432 0006351 274.8255  85.2008 15.48786980560603
DUPLEX                  
1 66906U 98067XS  26095.28483348  .00034554  00000+0  45585-3 0  9999
2 66906  51.6286 296.2512 0003389 238.8669 121.1991 15.58054408 19272
ISS OBJECT XT           
1 66907U 98067XT  26095.24502722  .00329459  00000+0  16178-2 0  9990
2 66907  51.6220 289.1848 0007348 254.3263 105.6928 15.80701456 19360
ISS OBJECT XU           
1 66908U 98067XU  26095.55581935  .00310882  00000+0  14909-2 0  9998
2 66908  51.6221 287.5051 0007577 255.7016 104.3145 15.81261870 19410
SILVERSAT               
1 66909U 98067XV  26095.54193433  .00493552  10205-3  17021-2 0  9996
2 66909  51.6182 285.8891 0009331 262.9398  97.0546 15.88922443 19435
ISS OBJECT XW           
1 66910U 98067XW  26094.81721722  .00228077  00000+0  12620-2 0  9991
2 66910  51.6195 291.5715 0007449 246.0581 113.9639 15.78347512 19297
ISS OBJECT XX           
1 66911U 98067XX  26095.25439823  .01178234  72726-3  21826-2 0  9995
2 66911  51.6140 285.4187 0011680 268.8533  91.1139 16.00504805 19405
ISS OBJECT XY           
1 66912U 98067XY  26095.24871133  .00141961  00000+0  11559-2 0  9999
2 66912  51.6246 292.2426 0005164 247.0020 113.0432 15.69674639 19312
KNACKSAT-2              
1 67683U 98067XZ  26094.79014270  .00049990  00000+0  75544-3 0  9999
2 67683  51.6331 301.9471 0010720 281.6024  78.3763 15.54148205  8848
